0 SENTINEL 2A
1 40697U 15028A   19270.83689874 -.00000010  00000-0  12718-4 0  9999
2 40697  98.5722 343.8453 0001086  76.5253 283.6044 14.30815009222761
0 SENTINEL 2A
1 40697U 15028A   19271.18655000 -.00000019  00000-0  94050-5 0  9991
2 40697  98.5721 344.1904 0001090  77.4461 282.6846 14.30814928222815
0 SENTINEL 2A
1 40697U 15028A   19271.46627068 -.00000017  00000-0  10141-4 0  9991
2 40697  98.5719 344.4661 0001080  76.8702 283.2603 14.30814981222856
0 SENTINEL 2A
1 40697U 15028A   19271.81592161 -.00000022  00000-0  82790-5 0  9991
2 40697  98.5720 344.8110 0001075  77.2795 282.8503 14.30814942222909
0 SENTINEL 2A
1 40697U 15028A   19272.16557281 -.00000020  00000-0  92002-5 0  9999
2 40697  98.5720 345.1559 0001060  76.8859 283.2452 14.30814985222950
0 SENTINEL 2A
1 40697U 15028A   19272.44529344 -.00000017  00000-0  10249-4 0  9997
2 40697  98.5721 345.4317 0001092  79.9914 280.1402 14.30815043222998
0 SENTINEL 2A
1 40697U 15028A   19272.79494420 -.00000020  00000-0  90648-5 0  9997
2 40697  98.5720 345.7764 0001103  79.9941 280.1361 14.30815022223047
0 SENTINEL 2A
1 40697U 15028A   19273.14459514 -.00000012  00000-0  12113-4 0  9993
2 40697  98.5720 346.1209 0001113  84.6865 275.4448 14.30815116223097
0 SENTINEL 2A
1 40697U 15028A   19273.49424610 -.00000016  00000-0  10632-4 0  9998
2 40697  98.5720 346.4657 0001123  83.2002 276.9309 14.30815101223148
0 SENTINEL 2A
1 40697U 15028A   19273.77396677 -.00000018  00000-0  97444-5 0  9999
2 40697  98.5720 346.7416 0001120  82.9090 277.2216 14.30815096223182
0 SENTINEL 2A
1 40697U 15028A   19274.19354815 -.00000021  00000-0  88099-5 0  9994
2 40697  98.5720 347.1553 0001109  82.7570 277.3744 14.30815082223246
0 SENTINEL 2A
1 40697U 15028A   19274.33340836 -.00000019  00000-0  95530-5 0  9993
2 40697  98.5719 347.2933 0001111  82.8901 277.2409 14.30815119223269
0 SENTINEL 2A
1 40697U 15028A   19274.82291970 -.00000020  00000-0  88703-5 0  9997
2 40697  98.5719 347.7758 0001129  83.1888 276.9424 14.30815135223335
0 SENTINEL 2A
1 40697U 15028A   19275.03271026 -.00000018  00000-0  99725-5 0  9994
2 40697  98.5719 347.9826 0001139  86.1184 274.0132 14.30815159223360
0 SENTINEL 2A
1 40697U 15028A   19275.73201139 -.00000003  00000-0  15341-4 0  9994
2 40697  98.5719 348.6723 0001136  88.0183 272.1129 14.30815430223469
0 SENTINEL 2A
1 40697U 15028A   19275.87187175 -.00000005 +00000-0 +14915-4 0  9990
2 40697 098.5718 348.8100 0001135 087.2463 272.8843 14.30815404223483
0 SENTINEL 2A
1 40697U 15028A   19276.08166244 -.00000003  00000-0  15564-4 0  9997
2 40697  98.5718 349.0168 0001129  87.6470 272.4846 14.30815440223518
0 SENTINEL 2A
1 40697U 15028A   19276.22152272 -.00000002  00000-0  15956-4 0  9993
2 40697  98.5719 349.1549 0001120  88.3105 271.8212 14.30815470223532
0 SENTINEL 2A
1 40697U 15028A   19276.78096398  .00000001  00000-0  16956-4 0  9999
2 40697  98.5717 349.7064 0001125  86.4416 273.6897 14.30815557223611
0 SENTINEL 2A
1 40697U 15028A   19276.92082431 -.00000002 +00000-0 +15941-4 0  9993
2 40697 098.5718 349.8445 0001117 086.7224 273.4080 14.30815507223636
0 SENTINEL 2A
1 40697U 15028A   19277.13061497 -.00000001  00000-0  16273-4 0  9994
2 40697  98.5718 350.0514 0001111  86.9164 273.2153 14.30815552223668
0 SENTINEL 2A
1 40697U 15028A   19277.41033553 -.00000000  00000-0  16625-4 0  9997
2 40697  98.5717 350.3272 0001109  87.2762 272.8553 14.30815599223701
0 SENTINEL 2A
1 40697U 15028A   19277.75998627 -.00000002  00000-0  15950-4 0  9998
2 40697  98.5717 350.6719 0001113  86.9887 273.1424 14.30815622223752
0 SENTINEL 2A
1 40697U 15028A   19277.89984659 -.00000001 +00000-0 +16138-4 0  9991
2 40697 098.5717 350.8098 0001112 086.4620 273.6686 14.30815618223775
0 SENTINEL 2A
1 40697U 15028A   19278.10963719  .00000002  00000-0  17397-4 0  9998
2 40697  98.5715 351.0167 0001102  87.0553 273.0763 14.30815684223801
0 SENTINEL 2A
1 40697U 15028A   19278.45928765  .00000008  00000-0  19769-4 0  9999
2 40697  98.5715 351.3616 0001090  87.3553 272.7758 14.30815814223852
0 SENTINEL 2A
1 40697U 15028A   19278.73900809  .00000013  00000-0  21429-4 0  9991
2 40697  98.5714 351.6372 0001110  88.0757 272.0556 14.30815916223896
0 SENTINEL 2A
1 40697U 15028A   19278.87886835 +.00000015 +00000-0 +22216-4 0  9995
2 40697 098.5714 351.7751 0001120 087.7424 272.3881 14.30815924223912
0 SENTINEL 2A
1 40697U 15028A   19279.08865892  .00000023  00000-0  25592-4 0  9998
2 40697  98.5714 351.9819 0001119  88.0535 272.0784 14.30816041223947
0 SENTINEL 2A
1 40697U 15028A   19279.43830935  .00000027  00000-0  27041-4 0  9992
2 40697  98.5713 352.3265 0001112  87.5250 272.6059 14.30816146223999
0 SENTINEL 2A
1 40697U 15028A   19279.85789022  .00000023  00000-0  25475-4 0  9993
2 40697  98.5713 352.7401 0001149  87.0779 273.0527 14.30816139224051
0 SENTINEL 2A
1 40697U 15028A   19280.20754110  .00000022  00000-0  25189-4 0  9995
2 40697  98.5711 353.0851 0001123  88.1616 271.9699 14.30816181224106
0 SENTINEL 2A
1 40697U 15028A   19280.48726158  .00000020  00000-0  24335-4 0  9996
2 40697  98.5711 353.3608 0001124  89.4516 270.6797 14.30816200224144
0 SENTINEL 2A
1 40697U 15028A   19280.83691229  .00000018  00000-0  23694-4 0  9999
2 40697  98.5712 353.7057 0001125  88.7640 271.3670 14.30816215224197
0 SENTINEL 2A
1 40697U 15028A   19281.18656331  .00000012  00000-0  21182-4 0  9997
2 40697  98.5710 354.0505 0001124  87.9175 272.2141 14.30816162224240
0 SENTINEL 2A
1 40697U 15028A   19281.46628374  .00000014  00000-0  22009-4 0  9995
2 40697  98.5710 354.3262 0001123  88.3151 271.8162 14.30816227224285
0 SENTINEL 2A
1 40697U 15028A   19281.81593442  .00000007  00000-0  19405-4 0  9999
2 40697  98.5710 354.6711 0001121  87.0268 273.1035 14.30816171224338
0 SENTINEL 2A
1 40697U 15028A   19282.16558540  .00000005  00000-0  18749-4 0  9996
2 40697  98.5708 355.0157 0001111  87.3795 272.7521 14.30816193224385
0 SENTINEL 2A
1 40697U 15028A   19282.44530585  .00000005  00000-0  18682-4 0  9992
2 40697  98.5707 355.2915 0001111  86.1974 273.9336 14.30816223224420
0 SENTINEL 2A
1 40697U 15028A   19282.79495648  .00000000  00000-0  16748-4 0  9996
2 40697  98.5707 355.6361 0001116  87.4652 272.6652 14.30816197224473
0 SENTINEL 2A
1 40697U 15028A   19283.14460739 -.00000000  00000-0  16556-4 0  9997
2 40697  98.5706 355.9807 0001112  86.5265 273.6045 14.30816211224526
0 SENTINEL 2A
1 40697U 15028A   19283.35439780 -.00000003  00000-0  15552-4 0  9990
2 40697  98.5706 356.1875 0001117  85.6377 274.4931 14.30816201224558
0 SENTINEL 2A
1 40697U 15028A   19283.63411842 -.00000004  00000-0  15177-4 0  9994
2 40697  98.5706 356.4633 0001125  86.3503 273.7813 14.30816228224595
0 SENTINEL 2A
1 40697U 15028A   19283.77397862 -.00000010  00000-0  12683-4 0  9990
2 40697  98.5706 356.6012 0001115  84.7280 275.4018 14.30816145224618
0 SENTINEL 2A
1 40697U 15028A   19284.19355980 -.00000015  00000-0  10922-4 0  9991
2 40697  98.5704 357.0147 0001121  84.4919 275.6392 14.30816120224679
0 SENTINEL 2A
1 40697U 15028A   19284.47328030 -.00000014  00000-0  11426-4 0  9997
2 40697  98.5704 357.2903 0001105  83.4716 276.6594 14.30816169224710
0 SENTINEL 2A
1 40697U 15028A   19284.82293093 -.00000015  00000-0  10850-4 0  9997
2 40697  98.5704 357.6351 0001118  83.3712 276.7594 14.30816174224762
0 SENTINEL 2A
1 40697U 15028A   19285.17258184 -.00000021  00000-0  86979-5 0  9991
2 40697  98.5703 357.9797 0001109  84.2547 275.8768 14.30816136224811
0 SENTINEL 2A
1 40697U 15028A   19285.52223242 -.00000019  00000-0  95672-5 0  9994
2 40697  98.5704 358.3244 0001109  84.0949 276.0367 14.30816202224865
0 SENTINEL 2A
1 40697U 15028A   19285.80195276 -.00000018  00000-0  99063-5 0  9997
2 40697  98.5703 358.6000 0001121  83.8477 276.2830 14.30816233224900
0 SENTINEL 2A
1 40697U 15028A   19286.15160361 -.00000014  00000-0  11210-4 0  9996
2 40697  98.5703 358.9447 0001103  83.9287 276.2030 14.30816285224952
0 SENTINEL 2A
1 40697U 15028A   19286.36139382 -.00000015  00000-0  10952-4 0  9991
2 40697  98.5703 359.1515 0001102  84.2648 275.8661 14.30816292224981
0 SENTINEL 2A
1 40697U 15028A   19286.78097457 -.00000014  00000-0  11248-4 0  9991
2 40697  98.5704 359.5653 0001111  83.8584 276.2725 14.30816332225042
0 SENTINEL 2A
1 40697U 15028A   19287.20055546 -.00000017  00000-0  10321-4 0  9996
2 40697  98.5704 359.9791 0001116  83.2686 276.8624 14.30816323225102
0 SENTINEL 2A
1 40697U 15028A   19287.48027597 -.00000016  00000-0  10397-4 0  9993
2 40697  98.5703   0.2544 0001114  83.3359 276.7953 14.30816356225143
0 SENTINEL 2A
1 40697U 15028A   19287.82992653 -.00000016  00000-0  10666-4 0  9994
2 40697  98.5703   0.5993 0001118  82.3350 277.7956 14.30816380225194
0 SENTINEL 2A
1 40697U 15028A   19288.17957729 -.00000011  00000-0  12263-4 0  9998
2 40697  98.5703   0.9441 0001116  82.3564 277.7752 14.30816445225243
0 SENTINEL 2A
1 40697U 15028A   19288.45929754 -.00000005  00000-0  14649-4 0  9999
2 40697  98.5704   1.2200 0001110  81.7547 278.3764 14.30816551225281
0 SENTINEL 2A
1 40697U 15028A   19288.66908786 -.00000002  00000-0  15795-4 0  9994
2 40697  98.5704   1.4268 0001133  82.6929 277.4390 14.30816617225318
0 SENTINEL 2A
1 40697U 15028A   19288.87887810 -.00000002 +00000-0 +15964-4 0  9999
2 40697 098.5703 001.6333 0001138 081.1320 278.9982 14.30816610225345
0 SENTINEL 2A
1 40697U 15028A   19289.08866864  .00000005  00000-0  18398-4 0  9995
2 40697  98.5703   1.8402 0001129  81.7720 278.3599 14.30816697225370
0 SENTINEL 2A
1 40697U 15028A   19289.71803920  .00000012  00000-0  21102-4 0  9994
2 40697  98.5703   2.4603 0001125  81.0733 279.0576 14.30816878225467
0 SENTINEL 2A
1 40697U 15028A   19289.92782954 +.00000009 +00000-0 +19952-4 0  9996
2 40697 098.5703 002.6673 0001118 079.6709 280.4587 14.30816821225493
0 SENTINEL 2A
1 40697U 15028A   19290.13762012  .00000010  00000-0  20554-4 0  9996
2 40697  98.5703   2.8740 0001111  80.2042 279.9271 14.30816865225526
